H1 CPF  1  DGF 2022 11 02 10  8061 larets     NONE      
H2   304206 5557    27944 2022 11 02 00 00 00 2022 11 09 00 00 00    30 1 1  0 0 0
H5  0.0650
H9
10 0 59888  14400.000000  0       6267148.456      -2909056.065      -1511348.277
10 0 59888  14430.000000  0       6286697.786      -2971255.187      -1293067.183
10 0 59888  14460.000000  0       6299630.496      -3030523.716      -1073470.140
10 0 59888  14490.000000  0       6305945.869      -3086772.503       -852780.508
10 0 59888  14520.000000  0       6305650.290      -3139915.468       -631222.810
10 0 59888  14550.000000  0       6298757.233      -3189869.721       -409022.503
10 0 59888  14580.000000  0       6285287.235      -3236555.677       -186405.745
10 0 59888  14610.000000  0       6265267.862      -3279897.175         36400.842
10 0 59888  14640.000000  0       6238733.674      -3319821.582        259170.398
10 0 59888  14670.000000  0       6205726.179      -3356259.905        481676.069
10 0 59888  14700.000000  0       6166293.771      -3389146.892        703691.244
10 0 59888  14730.000000  0       6120491.672      -3418421.131        924989.791
10 0 59888  14760.000000  0       6068381.851      -3444025.139       1145346.293
10 0 59888  14790.000000  0       6010032.948      -3465905.452       1364536.290
10 0 59888  14820.000000  0       5945520.174      -3484012.707       1582336.503
10 0 59888  14850.000000  0       5874925.221      -3498301.718       1798525.067
10 0 59888  14880.000000  0       5798336.157      -3508731.556       2012881.761
10 0 59888  14910.000000  0       5715847.319      -3515265.610       2225188.228
10 0 59888  14940.000000  0       5627559.194      -3517871.663       2435228.211
10 0 59888  14970.000000  0       5533578.300      -3516521.940       2642787.770
10 0 59888  15000.000000  0       5434017.050      -3511193.167       2847655.511
10 0 59888  15030.000000  0       5328993.617      -3501866.612       3049622.799
10 0 59888  15060.000000  0       5218631.785      -3488528.129       3248483.974
10 0 59888  15090.000000  0       5103060.808      -3471168.194       3444036.552
10 0 59888  15120.000000  0       4982415.248      -3449781.934       3636081.437
10 0 59888  15150.000000  0       4856834.828      -3424369.158       3824423.122
10 0 59888  15180.000000  0       4726464.261      -3394934.377       4008869.890
10 0 59888  15210.000000  0       4591453.082      -3361486.819       4189234.011
10 0 59888  15240.000000  0       4451955.474      -3324040.442       4365331.932
10 0 59888  15270.000000  0       4308130.082      -3282613.935       4536984.470
10 0 59888  15300.000000  0       4160139.828      -3237230.716       4704016.988
10 0 59888  15330.000000  0       4008151.719      -3187918.927       4866259.568
10 0 59888  15360.000000  0       3852336.660      -3134711.415       5023547.185
10 0 59888  15390.000000  0       3692869.251      -3077645.716       5175719.863
10 0 59888  15420.000000  0       3529927.595      -3016764.029       5322622.843
10 0 59888  15450.000000  0       3363693.096      -2952113.187       5464106.732
10 0 59888  15480.000000  0       3194350.250      -2883744.620       5600027.651
10 0 59888  15510.000000  0       3022086.443      -2811714.316       5730247.378
10 0 59888  15540.000000  0       2847091.738      -2736082.777       5854633.485
10 0 59888  15570.000000  0       2669558.663      -2656914.965       5973059.468
10 0 59888  15600.000000  0       2489681.996      -2574280.252       6085404.871
10 0 59888  15630.000000  0       2307658.553      -2488252.352       6191555.402
10 0 59888  15660.000000  0       2123686.970      -2398909.257       6291403.047
10 0 59888  15690.000000  0       1937967.487      -2306333.169       6384846.169
10 0 59888  15720.000000  0       1750701.729      -2210610.425       6471789.618
10 0 59888  15750.000000  0       1562092.485      -2111831.413       6552144.818
10 0 59888  15780.000000  0       1372343.490      -2010090.487       6625829.854
10 0 59888  15810.000000  0       1181659.201      -1905485.873       6692769.551
10 0 59888  15840.000000  0        990244.584      -1798119.582       6752895.546
10 0 59888  15870.000000  0        798304.890      -1688097.304       6806146.355
10 0 59888  15900.000000  0        606045.437      -1575528.310       6852467.436
10 0 59888  15930.000000  0        413671.395      -1460525.340       6891811.239
10 0 59888  15960.000000  0        221387.566      -1343204.492       6924137.260
10 0 59888  15990.000000  0         29398.163      -1223685.103       6949412.072
10 0 59888  16020.000000  0       -162093.396      -1102089.631       6967609.364
10 0 59888  16050.000000  0       -352884.709       -978543.530       6978709.965
10 0 59888  16080.000000  0       -542774.596       -853175.128       6982701.870
10 0 59888  16110.000000  0       -731563.312       -726115.489       6979580.251
10 0 59888  16140.000000  0       -919052.762       -597498.275       6969347.472
10 0 59888  16170.000000  0      -1105046.700       -467459.616       6952013.080
10 0 59888  16200.000000  0      -1289350.941       -336137.957       6927593.804
10 0 59888  16230.000000  0      -1471773.557       -203673.919       6896113.543
10 0 59888  16260.000000  0      -1652125.079        -70210.150       6857603.347
10 0 59888  16290.000000  0      -1830218.695         64108.833       6812101.390
10 0 59888  16320.000000  0      -2005870.443        199136.793       6759652.939
10 0 59888  16350.000000  0      -2178899.405        334725.932       6700310.317
10 0 59888  16380.000000  0      -2349127.893        470727.053       6634132.848
10 0 59888  16410.000000  0      -2516381.635        606989.724       6561186.815
10 0 59888  16440.000000  0      -2680489.953        743362.439       6481545.390
10 0 59888  16470.000000  0      -2841285.942        879692.786       6395288.578
10 0 59888  16500.000000  0      -2998606.644       1015827.621       6302503.137
10 0 59888  16530.000000  0      -3152293.219       1151613.234       6203282.504
10 0 59888  16560.000000  0      -3302191.107       1286895.526       6097726.706
10 0 59888  16590.000000  0      -3448150.194       1421520.182       5985942.266
10 0 59888  16620.000000  0      -3590024.964       1555332.845       5868042.103
10 0 59888  16650.000000  0      -3727674.655       1688179.300       5744145.428
10 0 59888  16680.000000  0      -3860963.402       1819905.646       5614377.632
10 0 59888  16710.000000  0      -3989760.382       1950358.484       5478870.160
10 0 59888  16740.000000  0      -4113939.949       2079385.091       5337760.388
10 0 59888  16770.000000  0      -4233381.766       2206833.604       5191191.488
10 0 59888  16800.000000  0      -4347970.927       2332553.202       5039312.289
10 0 59888  16830.000000  0      -4457598.077       2456394.281       4882277.123
10 0 59888  16860.000000  0      -4562159.527       2578208.640       4720245.679
10 0 59888  16890.000000  0      -4661557.352       2697849.656       4553382.837
10 0 59888  16920.000000  0      -4755699.495       2815172.461       4381858.508
10 0 59888  16950.000000  0      -4844499.859       2930034.126       4205847.465
10 0 59888  16980.000000  0      -4927878.393       3042293.833       4025529.166
10 0 59888  17010.000000  0      -5005761.175       3151813.051       3841087.571
10 0 59888  17040.000000  0      -5078080.482       3258455.710       3652710.953
10 0 59888  17070.000000  0      -5144774.852       3362088.372       3460591.711
10 0 59888  17100.000000  0      -5205789.147       3462580.403       3264926.169
10 0 59888  17130.000000  0      -5261074.602       3559804.136       3065914.378
10 0 59888  17160.000000  0      -5310588.870       3653635.040       2863759.907
10 0 59888  17190.000000  0      -5354296.062       3743951.880       2658669.633
10 0 59888  17220.000000  0      -5392166.769       3830636.879       2450853.518
10 0 59888  17250.000000  0      -5424178.085       3913575.865       2240524.394
10 0 59888  17280.000000  0      -5450313.622       3992658.429       2027897.738
10 0 59888  17310.000000  0      -5470563.515       4067778.067       1813191.447
10 0 59888  17340.000000  0      -5484924.420       4138832.327       1596625.602
10 0 59888  17370.000000  0      -5493399.500       4205722.946       1378422.233
10 0 59888  17400.000000  0      -5495998.405       4268355.981       1158805.081
10 0 59888  17430.000000  0      -5492737.239       4326641.928        937999.366
10 0 59888  17460.000000  0      -5483638.530       4380495.853        716231.553
10 0 59888  17490.000000  0      -5468731.191       4429837.509        493729.109
10 0 59888  17520.000000  0      -5448050.473       4474591.452        270720.257
10 0 59888  17550.000000  0      -5421637.902       4514687.144         47433.731
10 0 59888  17580.000000  0      -5389541.219       4550059.053       -175901.467
10 0 59888  17610.000000  0      -5351814.305       4580646.750       -399056.310
10 0 59888  17640.000000  0      -5308517.102       4606394.999       -621801.993
10 0 59888  17670.000000  0      -5259715.526       4627253.842       -843910.179
10 0 59888  17700.000000  0      -5205481.371       4643178.673      -1065153.245
10 0 59888  17730.000000  0      -5145892.205       4654130.309      -1285304.528
10 0 59888  17760.000000  0      -5081031.260       4660075.047      -1504138.561
10 0 59888  17790.000000  0      -5010987.315       4660984.725      -1721431.315
10 0 59888  17820.000000  0      -4935854.581       4656836.762      -1936960.435
10 0 59888  17850.000000  0      -4855732.566       4647614.205      -2150505.478
10 0 59888  17880.000000  0      -4770725.945       4633305.760      -2361848.141
10 0 59888  17910.000000  0      -4680944.416       4613905.826      -2570772.493
10 0 59888  17940.000000  0      -4586502.558       4589414.509      -2777065.199
10 0 59888  17970.000000  0      -4487519.679       4559837.641      -2980515.744
99
